RADUGA 1 [-]            
1 08513U 75123A   21030.05787625 -.00000050  00000+0  00000+0 0  9995
2 08513   7.7627 295.4091 0005085 201.9856  84.4450  1.00295648175112
RADUGA 2 [-]            
1 09416U 76092A   21030.20743894 -.00000188  00000+0  00000+0 0  9993
2 09416   8.4148 297.2786 0028497 345.0397   8.5008  1.00273614109644
RADUGA 3 [-]            
1 10159U 77071A   21029.97861917  .00000162  00000+0  00000+0 0  9997
2 10159   9.0158 299.6901 0006885 227.3024 350.7395  1.00250805157347
RADUGA 4 [-]            
1 10987U 78073A   21030.20188188 -.00000280  00000+0  00000+0 0  9991
2 10987   9.6172 302.8778 0010603 351.9461   4.0962  1.00333616 99907
RADUGA 5 [-]            
1 11343U 79035A   21029.94095740 -.00000057  00000+0  00000+0 0  9999
2 11343  10.0532 305.4059 0004674 128.7780 107.4178  1.00247436109651
RADUGA 6 [-]            
1 11708U 80016A   21030.62198069 -.00000332  00000+0  00000+0 0  9996
2 11708  10.3832 308.1942 0000540 108.1820  45.2123  1.00275301102472
RADUGA 7 [-]            
1 12003U 80081A   21030.59747946  .00000096  00000+0  00000+0 0  9993
2 12003  10.5472 310.0052 0008896 266.5001 315.3425  1.00292982103616
RADUGA 8 [-]            
1 12351U 81027A   21030.49478509  .00000116  00000+0  00000+0 0  9998
2 12351  10.8717 310.6494 0081449 213.0498   0.0875  1.00393400102832
RADUGA 9 [-]            
1 12618U 81069A   21029.86680941 -.00000346  00000+0  00000+0 0  9990
2 12618  11.0598 313.3014 0003439  79.4645 162.8290  1.00268985 27649
RADUGA 10 [-]           
1 12897U 81102A   21029.82791067 -.00000146  00000+0  00000+0 0  9993
2 12897  11.1338 314.1902 0003459 144.3299  51.2513  1.00254853 97640
RADUGA 11 [-]           
1 13669U 82113A   21030.05490956 -.00000153  00000+0  00000+0 0  9992
2 13669  13.0056 326.8663 0036495 242.5781 299.7134  0.97709829102348
RADUGA 12 [-]           
1 13974U 83028A   21030.59455072 -.00000133  00000+0  00000+0 0  9994
2 13974  12.1383 323.3620 0004140  49.2372  50.3619  1.00293886149699
RADUGA 13 [-]           
1 14307U 83088A   21030.49311795 -.00000072  00000+0  00000+0 0  9995
2 14307  13.2193 328.4551 0018825  26.4000 165.5508  0.98173942 99663
RADUGA 14 [-]           
1 14725U 84016A   21030.59436624 -.00000100  00000+0  00000+0 0  9993
2 14725  12.2817 326.8580 0004231  79.8761  13.7073  1.00245518 98411
RADUGA 15 [-]           
1 15057U 84063A   21030.19213986  .00000139  00000+0  00000+0 0  9995
2 15057  12.3850 327.8446 0003565 106.6159 154.1092  1.00215720121408
RADUGA 16 [-]           
1 15946U 85070A   21030.39383869 -.00000265  00000+0  00000+0 0  9992
2 15946  12.7616 332.3010 0002060  36.9389 222.9739  1.00232987102535
RADUGA 17 [-]           
1 16250U 85107A   21030.63656832 -.00000122  00000+0  00000+0 0  9994
2 16250  12.8601 333.6168 0009709 166.2842  20.9191  1.00191806132002
RADUGA 18 [-]           
1 16497U 86007A   21030.27498633 -.00000221  00000+0  00000+0 0  9990
2 16497  13.6262 336.1997 0072639 149.5448  89.6781  0.98814897126450
RADUGA 19 [-]           
1 17046U 86082A   21030.27896562 -.00000154  00000+0  00000+0 0  9992
2 17046  13.9719 339.9707 0010446 118.8537  80.8126  0.98460740123577
RADUGA 20 [-]           
1 17611U 87028A   21030.40050227 -.00000065  00000+0  00000+0 0  9997
2 17611  15.9257 343.5308 0027640 118.3521 246.9993  0.95961036119476
RADUGA 21 [-]           
1 18631U 87100A   21030.23216455 -.00000290  00000+0  00000+0 0  9999
2 18631  14.0219 341.1412 0003338  58.7893 123.0095  1.00266681121397
RADUGA 22 [-]           
1 19596U 88095A   21030.25767809  .00000090  00000+0  00000+0 0  9997
2 19596  13.9087 345.2090 0004909  85.6131 167.6890  1.00309490101958
RADUGA 23 [-]           
1 19928U 89030A   21030.26601213 -.00000366  00000+0  00000+0 0  9990
2 19928  14.0100 346.9601 0018103 143.6179 214.2969  1.00270890115153
RADUGA-1 1 [-]          
1 20083U 89048A   21030.46706160  .00000009  00000+0  00000+0 0  9995
2 20083  14.7003 349.8861 0021097  92.5910 263.5700  0.98707386111884
RADUGA 24 [-]           
1 20367U 89098A   21030.12316205  .00000091  00000+0  00000+0 0  9996
2 20367  14.5320 349.3396 0002366  22.6998 211.7641  1.00309580113277
RADUGA 25 [-]           
1 20499U 90016A   21030.53156289 -.00000222  00000+0  00000+0 0  9990
2 20499  14.2877 349.8996 0002715  78.7281 166.0133  1.00374779113217
RADUGA 26 [-]           
1 21016U 90112A   21030.33309663 -.00000286  00000+0  00000+0 0  9997
2 21016  14.5145 353.1112 0007919  51.5767 300.6510  1.00289554110567
RADUGA-1 2 [-]          
1 21038U 90116A   21030.40120015 -.00000139  00000+0  00000+0 0  9992
2 21038  14.5525 353.1983 0008503  65.0956 293.5180  1.00330371 27642
RADUGA 27 [-]           
1 21132U 91014A   21030.26775685 -.00000349  00000+0  00000+0 0  9991
2 21132  15.0712 352.9610 0005239  33.8980 327.4325  1.00289306109626
RADUGA 28 [-]           
1 21821U 91087A   21030.53536740  .00000129  00000+0  00000+0 0  9998
2 21821  14.7439 356.4830 0005902  76.5168 280.0794  1.00281943106625
RADUGA 29 [-]           
1 22557U 93013A   21030.33492859 -.00000327  00000+0  00000+0 0  9997
2 22557  14.8322   0.6190 0006405  63.7864 290.8320  1.00180655101987
RADUGA 30 [-]           
1 22836U 93062A   21030.47133616 -.00000049  00000+0  00000+0 0  9990
2 22836  14.8248   2.5472 0004678 339.8131  26.3879  1.00270621 26319
RADUGA-1 3 [-]          
1 22981U 94008A   21030.46915525  .00000049  00000+0  00000+0 0  9997
2 22981  14.8707   3.7168 0004236  30.5971 322.4170  1.00229537 98786
RADUGA 31 [-]           
1 23010U 94012A   21030.33492859 -.00000341  00000+0  00000+0 0  9998
2 23010  14.8398   3.6972 0005798  45.0488 306.4510  1.00286871 98656
RADUGA 32 [-]           
1 23448U 94087A   21030.47151063 -.00000059  00000+0  00000+0 0  9995
2 23448  14.7497   6.3582 0002627 230.9165 132.6088  1.00269548113190
RADUGA-1 4 [-]          
1 25642U 99010A   21030.40730667 -.00000356  00000+0  00000+0 0  9990
2 25642  14.9956  18.1536 0003868 304.7975  61.5150  1.00313487 80282
RADUGA-1 5 [-]          
1 26477U 00049A   21030.47482560 -.00000227  00000+0  00000+0 0  9991
2 26477  12.8268  22.2230 0006320  14.8752 350.5386  1.00335169 74733
RADUGA-1 6 [-]          
1 26936U 01045A   21030.18104892 -.00000153  00000+0  00000+0 0  9993
2 26936  12.8169  28.2946 0012449 153.8905  21.2100  0.97745491 69408
RADUGA-1 7 [-]          
1 28194U 04010A   21029.74294280  .00000090  00000+0  00000+0 0  9996
2 28194  11.3835  35.3225 0002556 291.8553  85.9315  1.00276048 61712
RADUGA-1M 1 [-]         
1 32373U 07058A   21030.45275488 -.00000248  00000+0  00000+0 0  9990
2 32373   5.7997  67.2913 0004344 303.4958 258.0137  0.99400327 32872
RADUGA-1 8 [-]          
1 34264U 09010A   21030.60616632  .00000065  00000+0  00000+0 0  9994
2 34264   8.2511  57.8783 0014948 341.1230 144.7674  0.99827679 43575
RADUGA-1M 2 [+]         
1 36358U 10002A   21030.59354858 -.00000181  00000+0  00000+0 0  9990
2 36358   0.0575 253.2174 0002989  84.5468  90.9292  1.00272949 30403
RADUGA-1M 3 [+]         
1 39375U 13062A   21030.53632699  .00000158  00000+0  00000+0 0  9990
2 39375   0.9909  95.4499 0006985 308.7617 313.8351  1.00274841 26432
